CCSDS_OMM_VERS = 2.0
CREATION_DATE  = 
ORIGINATOR     = 

OBJECT_NAME    = SL-3 R/B
OBJECT_ID      = 1982-079B
CENTER_NAME    = EARTH
REF_FRAME      = TEME
TIME_SYSTEM    = UTC
MEAN_ELEMENT_THEORY = SGP/SGP4

EPOCH          = 2026-01-15T10:23:16.249344
MEAN_MOTION    = 15.24033621
ECCENTRICITY   = .0025309
INCLINATION    = 81.1460
RA_OF_ASC_NODE = 255.9342
ARG_OF_PERICENTER = 349.1709
MEAN_ANOMALY   = 10.8975

EPHEMERIS_TYPE = 0
CLASSIFICATION_TYPE = U
NORAD_CAT_ID   = 13403
ELEMENT_SET_NO = 999
REV_AT_EPOCH   = 36958
BSTAR          = .1234E-3
MEAN_MOTION_DOT = .3044E-4
MEAN_MOTION_DDOT = 0

CCSDS_OMM_VERS = 2.0
CREATION_DATE  = 
ORIGINATOR     = 

OBJECT_NAME    = SL-14 R/B
OBJECT_ID      = 1982-092B
CENTER_NAME    = EARTH
REF_FRAME      = TEME
TIME_SYSTEM    = UTC
MEAN_ELEMENT_THEORY = SGP/SGP4

EPOCH          = 2026-01-15T12:53:24.146592
MEAN_MOTION    = 14.86594203
ECCENTRICITY   = .0021727
INCLINATION    = 82.5672
RA_OF_ASC_NODE = 191.1016
ARG_OF_PERICENTER = 115.8145
MEAN_ANOMALY   = 302.0318

EPHEMERIS_TYPE = 0
CLASSIFICATION_TYPE = U
NORAD_CAT_ID   = 13553
ELEMENT_SET_NO = 999
REV_AT_EPOCH   = 32103
BSTAR          = .39201E-4
MEAN_MOTION_DOT = .374E-5
MEAN_MOTION_DDOT = 0

CCSDS_OMM_VERS = 2.0
CREATION_DATE  = 
ORIGINATOR     = 

OBJECT_NAME    = SL-3 R/B
OBJECT_ID      = 1983-010B
CENTER_NAME    = EARTH
REF_FRAME      = TEME
TIME_SYSTEM    = UTC
MEAN_ELEMENT_THEORY = SGP/SGP4

EPOCH          = 2026-01-15T03:33:52.541856
MEAN_MOTION    = 15.44477269
ECCENTRICITY   = .0016327
INCLINATION    = 81.1034
RA_OF_ASC_NODE = 67.8068
ARG_OF_PERICENTER = 230.0424
MEAN_ANOMALY   = 129.9387

EPHEMERIS_TYPE = 0
CLASSIFICATION_TYPE = U
NORAD_CAT_ID   = 13819
ELEMENT_SET_NO = 999
REV_AT_EPOCH   = 34967
BSTAR          = .18239E-3
MEAN_MOTION_DOT = .8518E-4
MEAN_MOTION_DDOT = 0

CCSDS_OMM_VERS = 2.0
CREATION_DATE  = 
ORIGINATOR     = 

OBJECT_NAME    = SL-3 R/B
OBJECT_ID      = 1983-075B
CENTER_NAME    = EARTH
REF_FRAME      = TEME
TIME_SYSTEM    = UTC
MEAN_ELEMENT_THEORY = SGP/SGP4

EPOCH          = 2026-01-15T03:08:23.446752
MEAN_MOTION    = 15.36925128
ECCENTRICITY   = .0024288
INCLINATION    = 97.6112
RA_OF_ASC_NODE = 17.7566
ARG_OF_PERICENTER = 63.6807
MEAN_ANOMALY   = 296.6928

EPHEMERIS_TYPE = 0
CLASSIFICATION_TYPE = U
NORAD_CAT_ID   = 14208
ELEMENT_SET_NO = 999
REV_AT_EPOCH   = 32192
BSTAR          = .17966E-3
MEAN_MOTION_DOT = .6461E-4
MEAN_MOTION_DDOT = 0

CCSDS_OMM_VERS = 2.0
CREATION_DATE  = 
ORIGINATOR     = 

OBJECT_NAME    = COSMOS 1536
OBJECT_ID      = 1984-013A
CENTER_NAME    = EARTH
REF_FRAME      = TEME
TIME_SYSTEM    = UTC
MEAN_ELEMENT_THEORY = SGP/SGP4

EPOCH          = 2026-01-15T09:15:03.388032
MEAN_MOTION    = 15.23009710
ECCENTRICITY   = .0015664
INCLINATION    = 82.5459
RA_OF_ASC_NODE = 160.7859
ARG_OF_PERICENTER = 108.9707
MEAN_ANOMALY   = 251.3229

EPHEMERIS_TYPE = 0
CLASSIFICATION_TYPE = U
NORAD_CAT_ID   = 14699
ELEMENT_SET_NO = 999
REV_AT_EPOCH   = 26450
BSTAR          = .16071E-3
MEAN_MOTION_DOT = .3824E-4
MEAN_MOTION_DDOT = 0

CCSDS_OMM_VERS = 2.0
CREATION_DATE  = 
ORIGINATOR     = 

OBJECT_NAME    = SL-14 R/B
OBJECT_ID      = 1984-027B
CENTER_NAME    = EARTH
REF_FRAME      = TEME
TIME_SYSTEM    = UTC
MEAN_ELEMENT_THEORY = SGP/SGP4

EPOCH          = 2026-01-15T05:25:41.763648
MEAN_MOTION    = 14.85915070
ECCENTRICITY   = .0018754
INCLINATION    = 82.5432
RA_OF_ASC_NODE = 295.1568
ARG_OF_PERICENTER = 146.2428
MEAN_ANOMALY   = 213.9987

EPHEMERIS_TYPE = 0
CLASSIFICATION_TYPE = U
NORAD_CAT_ID   = 14820
ELEMENT_SET_NO = 999
REV_AT_EPOCH   = 23969
BSTAR          = .33876E-4
MEAN_MOTION_DOT = .321E-5
MEAN_MOTION_DDOT = 0

CCSDS_OMM_VERS = 2.0
CREATION_DATE  = 
ORIGINATOR     = 

OBJECT_NAME    = SL-8 R/B
OBJECT_ID      = 1985-006B
CENTER_NAME    = EARTH
REF_FRAME      = TEME
TIME_SYSTEM    = UTC
MEAN_ELEMENT_THEORY = SGP/SGP4

EPOCH          = 2026-01-15T10:32:46.989600
MEAN_MOTION    = 14.37746153
ECCENTRICITY   = .0019778
INCLINATION    = 74.0465
RA_OF_ASC_NODE = 359.1280
ARG_OF_PERICENTER = 285.7678
MEAN_ANOMALY   = 189.2007

EPHEMERIS_TYPE = 0
CLASSIFICATION_TYPE = U
NORAD_CAT_ID   = 15483
ELEMENT_SET_NO = 999
REV_AT_EPOCH   = 14637
BSTAR          = .79477E-4
MEAN_MOTION_DOT = .213E-5
MEAN_MOTION_DDOT = 0

CCSDS_OMM_VERS = 2.0
CREATION_DATE  = 
ORIGINATOR     = 

OBJECT_NAME    = SL-12 R/B(2)
OBJECT_ID      = 1985-042D
CENTER_NAME    = EARTH
REF_FRAME      = TEME
TIME_SYSTEM    = UTC
MEAN_ELEMENT_THEORY = SGP/SGP4

EPOCH          = 2026-01-15T10:24:18.739008
MEAN_MOTION    = 14.21962367
ECCENTRICITY   = .0036383
INCLINATION    = 71.1064
RA_OF_ASC_NODE = 200.2386
ARG_OF_PERICENTER = 211.6114
MEAN_ANOMALY   = 165.6158

EPHEMERIS_TYPE = 0
CLASSIFICATION_TYPE = U
NORAD_CAT_ID   = 15772
ELEMENT_SET_NO = 999
REV_AT_EPOCH   = 10682
BSTAR          = .21511E-4
MEAN_MOTION_DOT = 0
MEAN_MOTION_DDOT = 0

CCSDS_OMM_VERS = 2.0
CREATION_DATE  = 
ORIGINATOR     = 

OBJECT_NAME    = SL-14 R/B
OBJECT_ID      = 1985-069B
CENTER_NAME    = EARTH
REF_FRAME      = TEME
TIME_SYSTEM    = UTC
MEAN_ELEMENT_THEORY = SGP/SGP4

EPOCH          = 2026-01-15T03:50:13.421184
MEAN_MOTION    = 14.86364782
ECCENTRICITY   = .0019108
INCLINATION    = 82.5256
RA_OF_ASC_NODE = 75.2824
ARG_OF_PERICENTER = 14.5391
MEAN_ANOMALY   = 345.6371

EPHEMERIS_TYPE = 0
CLASSIFICATION_TYPE = U
NORAD_CAT_ID   = 15945
ELEMENT_SET_NO = 999
REV_AT_EPOCH   = 16488
BSTAR          = .30331E-4
MEAN_MOTION_DOT = .293E-5
MEAN_MOTION_DDOT = 0

CCSDS_OMM_VERS = 2.0
CREATION_DATE  = 
ORIGINATOR     = 

OBJECT_NAME    = SL-16 R/B
OBJECT_ID      = 1985-097B
CENTER_NAME    = EARTH
REF_FRAME      = TEME
TIME_SYSTEM    = UTC
MEAN_ELEMENT_THEORY = SGP/SGP4

EPOCH          = 2026-01-15T03:05:30.545664
MEAN_MOTION    = 14.16592310
ECCENTRICITY   = .0008677
INCLINATION    = 71.0019
RA_OF_ASC_NODE = 253.3117
ARG_OF_PERICENTER = 323.2337
MEAN_ANOMALY   = 199.1559

EPHEMERIS_TYPE = 0
CLASSIFICATION_TYPE = U
NORAD_CAT_ID   = 16182
ELEMENT_SET_NO = 999
REV_AT_EPOCH   = 7964
BSTAR          = -.23595E-4
MEAN_MOTION_DOT = -.95E-6
MEAN_MOTION_DDOT = 0

CCSDS_OMM_VERS = 2.0
CREATION_DATE  = 
ORIGINATOR     = 

OBJECT_NAME    = SL-14 R/B
OBJECT_ID      = 1986-006B
CENTER_NAME    = EARTH
REF_FRAME      = TEME
TIME_SYSTEM    = UTC
MEAN_ELEMENT_THEORY = SGP/SGP4

EPOCH          = 2026-01-15T08:27:46.087200
MEAN_MOTION    = 14.86721735
ECCENTRICITY   = .0078287
INCLINATION    = 82.5288
RA_OF_ASC_NODE = 309.9274
ARG_OF_PERICENTER = 89.4773
MEAN_ANOMALY   = 271.5413

EPHEMERIS_TYPE = 0
CLASSIFICATION_TYPE = U
NORAD_CAT_ID   = 16496
ELEMENT_SET_NO = 999
REV_AT_EPOCH   = 14128
BSTAR          = .49415E-4
MEAN_MOTION_DOT = .493E-5
MEAN_MOTION_DDOT = 0

CCSDS_OMM_VERS = 2.0
CREATION_DATE  = 
ORIGINATOR     = 

OBJECT_NAME    = COSMOS 1743
OBJECT_ID      = 1986-034A
CENTER_NAME    = EARTH
REF_FRAME      = TEME
TIME_SYSTEM    = UTC
MEAN_ELEMENT_THEORY = SGP/SGP4

EPOCH          = 2026-01-15T08:20:59.038656
MEAN_MOTION    = 15.54430093
ECCENTRICITY   = .0005391
INCLINATION    = 82.5358
RA_OF_ASC_NODE = 129.6270
ARG_OF_PERICENTER = 127.5852
MEAN_ANOMALY   = 232.5892

EPHEMERIS_TYPE = 0
CLASSIFICATION_TYPE = U
NORAD_CAT_ID   = 16719
ELEMENT_SET_NO = 999
REV_AT_EPOCH   = 17195
BSTAR          = .38029E-3
MEAN_MOTION_DOT = .25054E-3
MEAN_MOTION_DDOT = 0

