SL-3 R/B                
1 13403U 82079B   26015.43282696  .00003044  00000+0  12340-3 0  9994
2 13403  81.1460 255.9342 0025309 349.1709  10.8975 15.24033621369583
SL-14 R/B               
1 13553U 82092B   26015.53708503  .00000374  00000+0  39201-4 0  9995
2 13553  82.5672 191.1016 0021727 115.8145 302.0318 14.86594203321030
SL-3 R/B                
1 13819U 83010B   26015.14852479  .00008518  00000+0  18239-3 0  9995
2 13819  81.1034  67.8068 0016327 230.0424 129.9387 15.44477269349677
SL-3 R/B                
1 14208U 83075B   26015.13082693  .00006461  00000+0  17966-3 0  9992
2 14208  97.6112  17.7566 0024288  63.6807 296.6928 15.36925128321920
COSMOS 1536             
1 14699U 84013A   26015.38545588  .00003824  00000+0  16071-3 0  9999
2 14699  82.5459 160.7859 0015664 108.9707 251.3229 15.23009710264503
SL-14 R/B               
1 14820U 84027B   26015.22617782  .00000321  00000+0  33876-4 0  9991
2 14820  82.5432 295.1568 0018754 146.2428 213.9987 14.85915070239697
SL-8 R/B                
1 15483U 85006B   26015.43943275  .00000213  00000+0  79477-4 0  9994
2 15483  74.0465 359.1280 0019778 285.7678 189.2007 14.37746153146371
SL-12 R/B(2)            
1 15772U 85042D   26015.43355022  .00000000  00000+0  21511-4 0  9992
2 15772  71.1064 200.2386 0036383 211.6114 165.6158 14.21962367106823
SL-14 R/B               
1 15945U 85069B   26015.15987756  .00000293  00000+0  30331-4 0  9991
2 15945  82.5256  75.2824 0019108  14.5391 345.6371 14.86364782164889
SL-16 R/B               
1 16182U 85097B   26015.12882576 -.00000095  00000+0 -23595-4 0  9993
2 16182  71.0019 253.3117 0008677 323.2337 199.1559 14.16592310 79648
SL-14 R/B               
1 16496U 86006B   26015.35261675  .00000493  00000+0  49415-4 0  9997
2 16496  82.5288 309.9274 0078287  89.4773 271.5413 14.86721735141288
COSMOS 1743             
1 16719U 86034A   26015.34790554  .00025054  00000+0  38029-3 0  9996
2 16719  82.5358 129.6270 0005391 127.5852 232.5892 15.54430093171950
